SHIYAN-1 (SY-1)         
1 28220U 04012A   26068.73650539  .00016393  00000+0  54854-3 0  9991
2 28220  97.8764 140.5238 0005873  23.6952 336.4557 15.31043463195862
STARLINK-34721          
1 65039U 25161AA  26068.88039749  .00025051  00000+0  85485-3 0  9993
2 65039  53.1600 292.9834 0001180 167.4427 192.6603 15.30208248 34263
